#aV2011  9  5  0  0   .00000000      96 DD+AD WGS84 FIT  NGA
## 1652  86400.00000000   900.00000000 55809  .0000000000000
+   31     2  3  4  5  6  7  8  9 10 11 12 13 14 15 16 17 18
+         19 20 21 22 23 24 25 26 27 28 29 30 31 32  0  0  0
+          0  0  0  0  0  0  0  0  0  0  0  0  0  0  0  0  0
+          0  0  0  0  0  0  0  0  0  0  0  0  0  0  0  0  0
+          0  0  0  0  0  0  0  0  0  0  0  0  0  0  0  0  0
++         0  0  0  0  0  0  0  0  0  0  0  0  0  0  0  0  0
++         0  0  0  0  0  0  0  0  0  0  0  0  0  0  0  0  0
++         0  0  0  0  0  0  0  0  0  0  0  0  0  0  0  0  0
++         0  0  0  0  0  0  0  0  0  0  0  0  0  0  0  0  0
++         0  0  0  0  0  0  0  0  0  0  0  0  0  0  0  0  0
%c cc cc ccc ccc cccc cccc cccc cccc ccccc ccccc ccccc ccccc
%c cc cc ccc ccc cccc cccc cccc cccc ccccc ccccc ccccc ccccc
%f  0.0000000  0.000000000  0.00000000000  0.000000000000000
%f  0.0000000  0.000000000  0.00000000000  0.000000000000000
%i    0    0    0    0      0      0      0      0         0
%i    0    0    0    0      0      0      0      0         0
/*      NGA, ST. LOUIS,MO.                                  
/*   EPHEMERIS COMPUTED FROM  3 DAYS OF DATA                
/* CCCCCCCCCCCCCCCCCCCCCCCCCCCCCCCCCCCCCCCCCCCCCCCCCCCCCCCCC
/* CCCCCCCCCCCCCCCCCCCCCCCCCCCCCCCCCCCCCCCCCCCCCCCCCCCCCCCCC
*  2011  9  5 15 30   .00000000                                                 
P  2 -22030.699357  14338.753588    329.455318    354.580681                    
V  2  -2408.106752  -3136.655417 -31586.035258       .019212                    
P  3  12085.997365 -13580.069595  18823.088259    764.282266                    
V  3   5823.312760  24438.230850  13879.489620       .050302                    
P  4 -23167.919528   2868.391629 -13200.529328    222.423434                    
V  4  12613.055689 -10663.186513 -24530.918876       .111860                    
P  5 -16754.378914   6718.717525  19510.272382   -214.025004                    
V  5 -21211.071825 -12886.910416 -13656.624571      -.052921                    
P  6  14559.186051  -8393.558129  20660.422705    -78.196681                    
V  6   3194.285025  25885.081873   8569.164783       .093771                    
P  7  -9021.576840 -11940.695239  21958.555567     25.322405                    
V  7  23829.357581 -14335.359708   1764.082829       .018040                    
P  8 -17314.393641  -5528.985524  19614.229435      9.068802                    
V  8  21744.074613 -11397.166051  15458.245805       .000921                    
P  9  -9904.326185  19074.809624 -16171.427822    103.683466                    
V  9 -17083.805470   9410.064588  22310.371400       .023292                    
P 10 -24450.311031  -8295.538166   6807.029716    -12.176724                    
V 10  -6313.311823  -6809.711772 -29627.144566      -.012836                    
P 11   8887.270764 -22418.134789 -11092.290484   -183.220049                    
V 11  12804.647415  -7002.997443  25543.742280      -.033359                    
P 12   2134.273093  17004.372828 -20330.186453     20.436132                    
V 12 -22802.223378 -11971.441286 -12234.474801       .024291                    
P 13  -4321.504106 -24627.693187   8700.581877    252.978120                    
V 13   2506.024929 -11108.283891 -29806.916062      -.017875                    
P 14  13755.797219   8373.577771 -20981.380838    170.712318                    
V 14  -1476.775567  26910.057941   9547.629165       .019099                    
P 15  -5119.746514  24468.282150   8722.331087   -107.569385                    
V 15  -3582.466086 -10978.365247  28894.117023       .016377                    
P 16  15596.400789  -6842.433914  20474.732795   -195.995181                    
V 16  21898.107257  13733.871091 -11804.887358      -.021880                    
P 17 -14478.205695  -7657.761023 -20810.513317    176.376090                    
V 17    827.221616 -26698.997990   8956.542406      -.015048                    
P 18  18890.730557  17345.661302   7944.947272    155.828562                    
V 18  -9877.674177  -1976.524644  28668.639467       .018852                    
P 19   8879.404147 -22372.990565  10787.878488   -180.612293                    
V 19   1958.225487  13999.744730  27721.766213      -.040142                    
P 20  -4018.763323 -17957.056683 -19315.986374     52.568728                    
V 20  22500.609966   9334.584718 -13393.129616       .004930                    
P 21  13161.686187  10387.097770  21124.543006   -169.446242                    
V 21 -21898.181418  13753.522376   6419.469939      -.025107                    
P 22  24297.786937   9741.495418  -4653.887052    144.822474                    
V 22   3553.692124   6192.801721  30221.680657      -.002489                    
P 23    -20.965874 -26355.090574   -530.937873    278.405152                    
V 23   3065.590271    657.825981 -32041.164203      -.030250                    
P 24   8435.125250 -18415.575586 -16967.736665    421.382885                    
V 24  20200.240792  -8465.951779  19490.035526       .031639                    
P 25  13697.551073  18065.269456 -13885.638483     17.320697                    
V 25 -16504.107041  -6358.491550 -24575.428831       .017922                    
P 26 -11993.238617  15812.354221  16856.052490   -147.138051                    
V 26   -493.724022 -22724.267118  20638.024084      -.125326                    
P 27 -15425.244805  18534.022853 -10056.087191    302.177791                    
V 27 -12774.385022   5782.089129  28803.257897       .038930                    
P 28 -23232.681186 -13053.102363  -1105.048808     65.124968                    
V 28   -627.098740  -2894.481968  31872.095340       .030010                    
P 29   5767.517416  24460.795603   8730.731939    237.262341                    
V 29  -2634.677107  10945.007958 -29106.216845       .032682                    
P 30  17796.931039  16267.088931 -11562.799090     88.955320                    
V 30 -13929.880651  -3211.587986 -26851.427360      -.044645                    
P 31  23695.181122  -5996.820411 -10455.746638    136.986685                    
V 31 -10629.408103   8478.744662 -28204.114225       .056058                    
P 32   4994.094609 -14784.703669 -21264.504360   -323.443217                    
V 32  23197.499110  14983.327183  -4481.647589      -.067275                    
EOF
